{"type": "FeatureCollection", "features": [{"type": "Feature", "properties": {"stop_id": "4240914", "stop_name": "ON JOHNSON DR AT ROE AVE WB", "route_count": 3, "routes": ["401", "403", "404"]}, "geometry": {"type": "Point", "coordinates": [-94.640652, 39.024967]}}, {"type": "Feature", "properties": {"stop_id": "4240769", "stop_name": "ON MARTWAY BETWEEN OUTLOOK & WOODSON WB", "route_count": 3, "routes": ["401", "402", "403"]}, "geometry": {"type": "Point", "coordinates": [-94.65307, 39.019919]}}, {"type": "Feature", "properties": {"stop_id": "4240912", "stop_name": "ON MARTWAY ST AT LAMAR AVE WB", "route_count": 3, "routes": ["401", "402", "403"]}, "geometry": {"type": "Point", "coordinates": [-94.657325, 39.019863]}}, {"type": "Feature", "properties": {"stop_id": "4239509", "stop_name": "JOHNSON COUNTY COMMUNITY COLLEGE CARLSEN CENTER", "route_count": 4, "routes": ["401", "402", "403", "475"]}, "geometry": {"type": "Point", "coordinates": [-94.727834, 38.925719]}}, {"type": "Feature", "properties": {"stop_id": "4240980", "stop_name": "Lenexa City Center", "route_count": 3, "routes": ["487", "495", "77793"]}, "geometry": {"type": "Point", "coordinates": [-94.781781, 38.970277]}}, {"type": "Feature", "properties": {"stop_id": "4240909", "stop_name": "ON METCALF AT 75TH ST NORTHBOUND", "route_count": 3, "routes": ["401", "404", "487"]}, "geometry": {"type": "Point", "coordinates": [-94.667561, 38.992933]}}, {"type": "Feature", "properties": {"stop_id": "4238697", "stop_name": "MISSION TRANSIT CENTER BAY #6", "route_count": 3, "routes": ["402", "404", "487"]}, "geometry": {"type": "Point", "coordinates": [-94.64554582978346, 39.022589774422386]}}, {"type": "Feature", "properties": {"stop_id": "4239511", "stop_name": "OAK PARK MALL PARK AND RIDE", "route_count": 3, "routes": ["402", "495", "520"]}, "geometry": {"type": "Point", "coordinates": [-94.715865, 38.954909]}}, {"type": "Feature", "properties": {"stop_id": "4240917", "stop_name": "ON MARTWAY ST AT LAMAR AVE EB", "route_count": 3, "routes": ["401", "402", "403"]}, "geometry": {"type": "Point", "coordinates": [-94.657351, 39.019757]}}, {"type": "Feature", "properties": {"stop_id": "4240768", "stop_name": "ON MARTWAY DR BETWEEN WOODSON & OUTLOOK EB", "route_count": 3, "routes": ["401", "402", "403"]}, "geometry": {"type": "Point", "coordinates": [-94.653137, 39.019798]}}]}