{"type": "FeatureCollection", "features": [{"type": "Feature", "properties": {"route_id": "76792", "route_short_name": "510", "route_long_name": "K-10 Connector", "route_type": "Bus", "headway_minutes": 30.0, "frequency_tier": "Standard (16\u201330 min)", "color": "#3987e5"}, "geometry": {"type": "LineString", "coordinates": [[-95.26621888099625, 38.95645010449644], [-95.2653973798399, 38.95647713431855], [-95.26602907910265, 38.956959125079095], [-95.260487, 38.956927], [-95.260523, 38.918842], [-95.253475, 38.920658], [-95.244872, 38.925342], [-95.240327, 38.926482], [-95.229738, 38.926068], [-95.206279, 38.92335], [-95.193139, 38.923214], [-95.189727, 38.923568], [-95.185999, 38.924627], [-95.182818, 38.926238], [-95.177152, 38.931385], [-95.174403, 38.933177], [-95.170967, 38.934532], [-95.166754, 38.93527], [-95.138834, 38.934594], [-95.11839, 38.931561], [-95.104468, 38.928997], [-95.096882, 38.929067], [-95.090596, 38.930978], [-95.07194, 38.941485], [-95.06913, 38.942556], [-95.066308, 38.942927], [-95.044923, 38.94291], [-95.037578, 38.94456], [-95.034177, 38.94622], [-95.031442, 38.948292], [-95.025697, 38.955345], [-95.02233, 38.958072], [-95.017179, 38.960447], [-95.011093, 38.961539], [-94.967882, 38.960018], [-94.932566, 38.95994], [-94.915238, 38.956154], [-94.911422, 38.954434], [-94.902544, 38.948824], [-94.899797, 38.94777], [-94.896591, 38.947306], [-94.888919, 38.947722], [-94.88462, 38.947353], [-94.868533, 38.942165], [-94.86338, 38.941235], [-94.832261, 38.94112], [-94.813696, 38.941841], [-94.791058, 38.941401], [-94.777678, 38.941859], [-94.772332, 38.943074], [-94.766966, 38.942444], [-94.755606, 38.942277], [-94.752101, 38.941416], [-94.739285, 38.935169], [-94.736549, 38.934834], [-94.728267, 38.935017], [-94.723782, 38.934475], [-94.723627, 38.930141], [-94.72871819777755, 38.929851074873085], [-94.7294427698705, 38.929370307718784], [-94.729597, 38.927522], [-94.729439, 38.926817], [-94.728214, 38.926465], [-94.72790813496911, 38.92574386300752], [-94.727128, 38.926637], [-94.725536, 38.92616], [-94.724839, 38.922957], [-94.723708, 38.922914], [-94.723816, 38.901827], [-94.725118, 38.901824], [-94.724739, 38.90077], [-94.72533432333087, 38.900783521846925]]}}, {"type": "Feature", "properties": {"route_id": "76802", "route_short_name": "401", "route_long_name": "Metcalf-Plaza", "route_type": "Bus", "headway_minutes": 52.0, "frequency_tier": "Infrequent (31\u201360 min)", "color": "#6da7ec"}, "geometry": {"type": "LineString", "coordinates": [[-94.573454, 39.034312], [-94.573474, 39.032655], [-94.575803, 39.03271], [-94.575656, 39.036313], [-94.578652, 39.038502], [-94.582477, 39.038679], [-94.582295, 39.042153], [-94.598543, 39.042536], [-94.598769, 39.03934], [-94.600774, 39.037881], [-94.602656, 39.034772], [-94.604209, 39.03376], [-94.605615, 39.033581], [-94.60798, 39.034227], [-94.61091, 39.033348], [-94.617359, 39.033252], [-94.62513, 39.029744], [-94.632939, 39.029347], [-94.637861, 39.025258], [-94.640496, 39.024982], [-94.64591418915423, 39.023288016297954], [-94.64538968247842, 39.02236924190885], [-94.649578, 39.02149], [-94.651918, 39.020148], [-94.656861, 39.019778], [-94.660268, 39.0206], [-94.665633, 39.020535], [-94.66565, 39.018598], [-94.667573, 39.018586], [-94.667759, 38.917776], [-94.665428, 38.917418], [-94.666778, 38.914790000000224], [-94.66631, 38.914046], [-94.665209, 38.913898], [-94.665303, 38.913014], [-94.723616, 38.912922], [-94.723477, 38.923046], [-94.724839, 38.922957], [-94.725651, 38.926245], [-94.72803, 38.926551], [-94.727921, 38.925744]]}}, {"type": "Feature", "properties": {"route_id": "76796", "route_short_name": "404", "route_long_name": "Metcalf-Downtown", "route_type": "Bus", "headway_minutes": 60.0, "frequency_tier": "Infrequent (31\u201360 min)", "color": "#6da7ec"}, "geometry": {"type": "LineString", "coordinates": [[-94.666389, 38.914222], [-94.666767, 38.915025], [-94.665669, 38.916198], [-94.665416, 38.917533], [-94.667578, 38.917799], [-94.66727, 38.924601], [-94.667744, 38.9289350000002], [-94.667653, 39.02053], [-94.660268, 39.0206], [-94.657132, 39.019786], [-94.653158, 39.019852], [-94.649578, 39.02149], [-94.645756, 39.022247], [-94.646184, 39.023195], [-94.639668, 39.024894], [-94.63958, 39.038293], [-94.640632, 39.040557], [-94.645149, 39.045815], [-94.645119, 39.04673], [-94.643505, 39.048171], [-94.64022, 39.04962], [-94.637226, 39.052152], [-94.629292, 39.056491], [-94.627312, 39.060649], [-94.620771, 39.066804], [-94.618896, 39.071446], [-94.616756, 39.073406], [-94.605319, 39.076279], [-94.59897, 39.07552], [-94.596296, 39.076264], [-94.594647, 39.077677], [-94.593544, 39.079557], [-94.591642, 39.087197], [-94.591436, 39.086242], [-94.589032, 39.087437], [-94.589406, 39.086161], [-94.591079, 39.084595], [-94.591568, 39.083404], [-94.581719, 39.083957], [-94.581128, 39.095705], [-94.578777, 39.095582], [-94.578551, 39.099785], [-94.573183, 39.099602], [-94.573453, 39.09926]]}}, {"type": "Feature", "properties": {"route_id": "76793", "route_short_name": "495", "route_long_name": "95th Street", "route_type": "Bus", "headway_minutes": 60.0, "frequency_tier": "Infrequent (31\u201360 min)", "color": "#6da7ec"}, "geometry": {"type": "LineString", "coordinates": [[-94.575411, 38.991635], [-94.60796, 38.992976], [-94.60852999999972, 38.98008699999999], [-94.608199, 38.956737], [-94.714853, 38.956636], [-94.715736, 38.952056], [-94.717066, 38.951262], [-94.717335, 38.951876], [-94.716017, 38.952131], [-94.715504, 38.954259], [-94.716646, 38.955387], [-94.717641, 38.9556], [-94.717631, 38.956633], [-94.779525, 38.956479], [-94.77966, 38.971096], [-94.781653, 38.971123], [-94.78171096197127, 38.97027010968165]]}}, {"type": "Feature", "properties": {"route_id": "76794", "route_short_name": "487", "route_long_name": "87th Street-MTC", "route_type": "Bus", "headway_minutes": 71.0, "frequency_tier": "Limited (60+ min / peak-only)", "color": "#86b6ef"}, "geometry": {"type": "LineString", "coordinates": [[-94.781781, 38.970277], [-94.7813, 38.969235], [-94.779761, 38.968873], [-94.779659, 38.970865], [-94.777557, 38.970946], [-94.693989, 38.971158], [-94.69103, 38.971394], [-94.686911, 38.972888], [-94.673325, 38.982254], [-94.672007, 38.984007], [-94.667709, 38.984013], [-94.667688, 38.993133], [-94.649047, 38.993112], [-94.649057, 39.0223], [-94.64591809581869, 39.02327296445573], [-94.64551703306581, 39.02258684588774]]}}, {"type": "Feature", "properties": {"route_id": "76797", "route_short_name": "403", "route_long_name": "Antioch-Olathe", "route_type": "Bus", "headway_minutes": 62.0, "frequency_tier": "Limited (60+ min / peak-only)", "color": "#86b6ef"}, "geometry": {"type": "LineString", "coordinates": [[-94.83543, 38.886741], [-94.835798, 38.887103], [-94.834666, 38.887336], [-94.834662, 38.883664], [-94.779411, 38.883612], [-94.779298, 38.90475], [-94.775954, 38.908103], [-94.775158, 38.907559], [-94.773784, 38.9086], [-94.7745, 38.90917], [-94.772232, 38.909915], [-94.768431, 38.910163], [-94.766859, 38.91095], [-94.765306, 38.914155], [-94.761229, 38.916905], [-94.760375, 38.920802], [-94.754739, 38.924357], [-94.754341, 38.927254], [-94.729603, 38.927349], [-94.7278370000004, 38.925737000000034], [-94.727614, 38.926513], [-94.729131, 38.92675], [-94.72942, 38.927349], [-94.700593, 38.927341], [-94.700368, 38.93035], [-94.696418, 38.931003], [-94.695265, 38.93217], [-94.69177, 38.931724], [-94.689403, 38.932285], [-94.686127, 38.932221], [-94.68636, 39.014897], [-94.658358, 39.014901], [-94.658365, 39.020132], [-94.656861, 39.019778], [-94.652543, 39.01998], [-94.649578, 39.02149], [-94.645669, 39.022276], [-94.646184, 39.023195], [-94.639668, 39.024894], [-94.639551, 39.038095], [-94.64044, 39.040377], [-94.638306, 39.041991], [-94.63877, 39.043798], [-94.611904, 39.044081], [-94.611746, 39.057292], [-94.60972547354126, 39.05727416555919]]}}, {"type": "Feature", "properties": {"route_id": "76801", "route_short_name": "402", "route_long_name": "Johnson-Quivira", "route_type": "Bus", "headway_minutes": 60.0, "frequency_tier": "Infrequent (31\u201360 min)", "color": "#6da7ec"}, "geometry": {"type": "LineString", "coordinates": [[-94.68557, 39.113478], [-94.68560881856814, 39.113041204956716], [-94.68652317179313, 39.113009466429645], [-94.686525, 39.116557], [-94.68387518848657, 39.11654825875192], [-94.682953, 39.115686], [-94.682491, 39.110936], [-94.680777, 39.108075], [-94.679689, 39.10246], [-94.680762, 39.096119], [-94.68064, 39.075573], [-94.679385, 39.063965], [-94.679065, 39.048486], [-94.677357, 39.044667], [-94.673746, 39.039892], [-94.669629, 39.036064], [-94.668324, 39.033924], [-94.667826, 39.023665], [-94.66851694682205, 39.02313099329237], [-94.66855472052721, 39.02220160179493], [-94.65020850081835, 39.02223991048933], [-94.64591433616457, 39.023289519283054], [-94.64539, 39.022371], [-94.649578, 39.02149], [-94.652543, 39.01998], [-94.656861, 39.019778], [-94.658365, 39.020132], [-94.658502, 39.022253], [-94.704119, 39.022118], [-94.709661, 39.022961], [-94.714581, 39.022937], [-94.714469, 38.992964], [-94.723775, 38.992877], [-94.723692, 38.951869], [-94.720503, 38.951225], [-94.717334, 38.951228], [-94.717335, 38.951876], [-94.715967, 38.952243], [-94.715504, 38.954259], [-94.71590261474991, 38.954870893564305]]}}, {"type": "Feature", "properties": {"route_id": "76790", "route_short_name": "520", "route_long_name": "Strang Line Express", "route_type": "Bus", "headway_minutes": 90.0, "frequency_tier": "Limited (60+ min / peak-only)", "color": "#86b6ef"}, "geometry": {"type": "LineString", "coordinates": [[-94.589162, 39.08699], [-94.591568, 39.083404], [-94.581719, 39.083957], [-94.581128, 39.095705], [-94.578777, 39.095582], [-94.578476, 39.100993], [-94.591008, 39.101151], [-94.591177, 39.100226], [-94.594253, 39.10038], [-94.591456, 39.09615], [-94.590994, 39.091845], [-94.594357, 39.079125], [-94.595818, 39.077273], [-94.599306, 39.075809], [-94.605556, 39.076349], [-94.614986, 39.074229], [-94.617184, 39.073308], [-94.619046, 39.0715], [-94.620984, 39.066788], [-94.627559, 39.060558], [-94.629336, 39.056627], [-94.637409, 39.052177], [-94.641191, 39.049178], [-94.663724, 39.042736], [-94.671021, 39.041751], [-94.675916, 39.040434], [-94.68011, 39.038744], [-94.685332, 39.035473], [-94.689012, 39.031087], [-94.691031, 39.025956], [-94.693095, 39.017525], [-94.695016, 38.998781], [-94.695935, 38.995811], [-94.697509, 38.993583], [-94.707885, 38.982737], [-94.712641, 38.979847], [-94.713749, 38.978319], [-94.713727, 38.963328], [-94.7129, 38.961412], [-94.709138, 38.95665], [-94.714853, 38.956636], [-94.715736, 38.952056], [-94.717066, 38.951262], [-94.717335, 38.951876], [-94.716017, 38.952131], [-94.715504, 38.954259], [-94.716646, 38.955387], [-94.717641, 38.9556], [-94.717631, 38.956633], [-94.733929, 38.956286], [-94.734898, 38.954211], [-94.766373, 38.917537], [-94.771939, 38.913413], [-94.771986, 38.912887], [-94.766559, 38.912615], [-94.766854, 38.911316], [-94.768703, 38.91025], [-94.774032, 38.909532], [-94.776065, 38.908182], [-94.775158, 38.907559], [-94.774524, 38.908037]]}}, {"type": "Feature", "properties": {"route_id": "76795", "route_short_name": "475", "route_long_name": "Quivira-75th Street", "route_type": "Bus", "headway_minutes": 70.0, "frequency_tier": "Limited (60+ min / peak-only)", "color": "#86b6ef"}, "geometry": {"type": "LineString", "coordinates": [[-94.725339, 38.900841], [-94.72594, 38.90079], [-94.726175, 38.901556], [-94.723638, 38.901706], [-94.723477, 38.923046], [-94.724839, 38.922957], [-94.725651, 38.926245], [-94.72803, 38.926551], [-94.727921, 38.925744], [-94.727614, 38.926513], [-94.729236, 38.92683], [-94.729492, 38.929133], [-94.727963, 38.930076], [-94.723418, 38.930053], [-94.723619, 38.99276], [-94.609339, 38.993182], [-94.57567, 38.991557], [-94.575286, 38.991992], [-94.575411, 38.991635]]}}]}