{"type": "FeatureCollection", "features": [{"type": "Feature", "properties": {"stop_id": "1090042", "stop_name": "ON 11TH AT CHERRY WESTBOUND", "route_count": 10, "routes": ["101", "11", "12", "18", "201", "210", "229", "23", "238", "9"]}, "geometry": {"type": "Point", "coordinates": [-94.576088, 39.100883]}}, {"type": "Feature", "properties": {"stop_id": "110046", "stop_name": "ON 11TH AT OAK WESTBOUND", "route_count": 12, "routes": ["101", "11", "12", "18", "201", "210", "229", "23", "238", "24", "9", "PMAX"]}, "geometry": {"type": "Point", "coordinates": [-94.578364, 39.101005]}}, {"type": "Feature", "properties": {"stop_id": "5811", "stop_name": "ON 11TH AT GRAND WESTBOUND NEARSIDE", "route_count": 12, "routes": ["101", "11", "12", "18", "201", "210", "229", "23", "238", "9", "PMAX", "TMAX"]}, "geometry": {"type": "Point", "coordinates": [-94.580719, 39.101114]}}, {"type": "Feature", "properties": {"stop_id": "25225", "stop_name": "ON 11TH/PETTICOAT LANE AT MAIN WESTBOUND", "route_count": 9, "routes": ["101", "11", "12", "18", "229", "23", "9", "PMAX", "TMAX"]}, "geometry": {"type": "Point", "coordinates": [-94.58297, 39.101181]}}, {"type": "Feature", "properties": {"stop_id": "1010004", "stop_name": "ON 11TH AT CENTRAL WESTBOUND", "route_count": 7, "routes": ["101", "11", "12", "18", "229", "23", "9"]}, "geometry": {"type": "Point", "coordinates": [-94.586833, 39.100989]}}, {"type": "Feature", "properties": {"stop_id": "1200122", "stop_name": "ON 12TH AT WASHINGTON EASTBOUND MIDBLOCK", "route_count": 4, "routes": ["101", "11", "12", "9"]}, "geometry": {"type": "Point", "coordinates": [-94.588686, 39.100072]}}, {"type": "Feature", "properties": {"stop_id": "25001", "stop_name": "ON 12TH BETWEEN BROADWAY AND CENTRAL EASTBOUND", "route_count": 5, "routes": ["101", "11", "12", "18", "23"]}, "geometry": {"type": "Point", "coordinates": [-94.587482, 39.100027]}}, {"type": "Feature", "properties": {"stop_id": "1730003", "stop_name": "ON 12TH BETWEEN CENTRAL AND WYANDOTTE EASTBOUND", "route_count": 7, "routes": ["101", "11", "12", "18", "229", "23", "9"]}, "geometry": {"type": "Point", "coordinates": [-94.586299, 39.099994]}}, {"type": "Feature", "properties": {"stop_id": "90081", "stop_name": "PLAZA STATION", "route_count": 3, "routes": ["107", "35", "50"]}, "geometry": {"type": "Point", "coordinates": [-94.586434, 39.041303]}}, {"type": "Feature", "properties": {"stop_id": "75195", "stop_name": "ON 12TH AT TROOST WESTBOUND FARSIDE", "route_count": 7, "routes": ["11", "12", "18", "25", "71", "9", "PMAX"]}, "geometry": {"type": "Point", "coordinates": [-94.57044, 39.099544]}}, {"type": "Feature", "properties": {"stop_id": "213", "stop_name": "ON 12TH AT CHARLOTTE WESTBOUND NEARSIDE", "route_count": 4, "routes": ["11", "12", "18", "9"]}, "geometry": {"type": "Point", "coordinates": [-94.573268, 39.099646]}}, {"type": "Feature", "properties": {"stop_id": "1090041", "stop_name": "ON 11TH BETWEEN CHARLOTTE AND HOLMES WESTBOUND", "route_count": 6, "routes": ["11", "12", "18", "201", "24", "9"]}, "geometry": {"type": "Point", "coordinates": [-94.574437, 39.100885]}}, {"type": "Feature", "properties": {"stop_id": "390119", "stop_name": "ON 39TH AT KU MED CENTER EASTBOUND", "route_count": 3, "routes": ["11", "39", "47"]}, "geometry": {"type": "Point", "coordinates": [-94.609724, 39.057233]}}, {"type": "Feature", "properties": {"stop_id": "25002", "stop_name": "ON 12TH BETWEEN BALTIMORE AND MAIN EASTBOUND", "route_count": 8, "routes": ["11", "12", "18", "229", "23", "9", "PMAX", "TMAX"]}, "geometry": {"type": "Point", "coordinates": [-94.583611, 39.09991]}}, {"type": "Feature", "properties": {"stop_id": "25004", "stop_name": "ON 12TH BETWEEN GRAND AND MCGEE EASTBOUND", "route_count": 9, "routes": ["11", "12", "18", "201", "210", "229", "23", "24", "9"]}, "geometry": {"type": "Point", "coordinates": [-94.579742, 39.099813]}}, {"type": "Feature", "properties": {"stop_id": "1200129", "stop_name": "ON 12TH AT LOCUST EASTBOUND", "route_count": 13, "routes": ["11", "12", "18", "201", "210", "229", "23", "238", "24", "550", "9", "PMAX", "TMAX"]}, "geometry": {"type": "Point", "coordinates": [-94.577598, 39.099698]}}, {"type": "Feature", "properties": {"stop_id": "212", "stop_name": "ON 12TH BETWEEN HOLMES AND CHARLOTTE EASTBOUND", "route_count": 4, "routes": ["11", "12", "18", "9"]}, "geometry": {"type": "Point", "coordinates": [-94.574269, 39.099558]}}, {"type": "Feature", "properties": {"stop_id": "25010", "stop_name": "ON 12TH AT TROOST EASTBOUND", "route_count": 7, "routes": ["11", "12", "18", "25", "71", "9", "PMAX"]}, "geometry": {"type": "Point", "coordinates": [-94.570095, 39.099424]}}, {"type": "Feature", "properties": {"stop_id": "270002", "stop_name": "ON VAN BRUNT LOOP AT 31ST NORTHBOUND", "route_count": 4, "routes": ["12", "27", "28", "35"]}, "geometry": {"type": "Point", "coordinates": [-94.52116, 39.069201]}}, {"type": "Feature", "properties": {"stop_id": "25214", "stop_name": "ON TROOST AT TRUMAN NORTHBOUND", "route_count": 3, "routes": ["18", "25", "71"]}, "geometry": {"type": "Point", "coordinates": [-94.570014, 39.095524]}}, {"type": "Feature", "properties": {"stop_id": "1210157", "stop_name": "ON CLEVELAND AT BLUE PKWY FS SB", "route_count": 3, "routes": ["18", "21", "47"]}, "geometry": {"type": "Point", "coordinates": [-94.540813, 39.035852]}}, {"type": "Feature", "properties": {"stop_id": "7100087", "stop_name": "ON 13TH AT LOCUST WESTBOUND", "route_count": 3, "routes": ["201", "550", "TMAX"]}, "geometry": {"type": "Point", "coordinates": [-94.577329, 39.098484]}}, {"type": "Feature", "properties": {"stop_id": "5848", "stop_name": "ON 12TH AT GRAND EASTBOUND", "route_count": 3, "routes": ["201", "PMAX", "TMAX"]}, "geometry": {"type": "Point", "coordinates": [-94.580764, 39.099812]}}, {"type": "Feature", "properties": {"stop_id": "26001", "stop_name": "ON 12TH AT CHARLOTTE EASTBOUND NEARSIDE", "route_count": 3, "routes": ["201", "23", "TMAX"]}, "geometry": {"type": "Point", "coordinates": [-94.57413, 39.099568]}}, {"type": "Feature", "properties": {"stop_id": "290073", "stop_name": "ON GRAND AT PERSHING FARSIDE NORTHBOUND", "route_count": 3, "routes": ["201", "50", "550"]}, "geometry": {"type": "Point", "coordinates": [-94.581617, 39.084558]}}, {"type": "Feature", "properties": {"stop_id": "290074", "stop_name": "ON GRAND AT 22ND NORTHBOUND NEARSIDE", "route_count": 3, "routes": ["201", "550", "85"]}, "geometry": {"type": "Point", "coordinates": [-94.58152, 39.085939]}}, {"type": "Feature", "properties": {"stop_id": "290077", "stop_name": "ON GRAND AT 19TH NORTHBOUND", "route_count": 3, "routes": ["201", "550", "85"]}, "geometry": {"type": "Point", "coordinates": [-94.581339, 39.089983]}}, {"type": "Feature", "properties": {"stop_id": "1080173", "stop_name": "ON GRAND AT 17TH NORTHBOUND FARSIDE", "route_count": 3, "routes": ["201", "550", "85"]}, "geometry": {"type": "Point", "coordinates": [-94.581154, 39.093738]}}, {"type": "Feature", "properties": {"stop_id": "5500105", "stop_name": "ON GRAND AT 9TH NORTHBOUND FARSIDE", "route_count": 4, "routes": ["201", "210", "238", "85"]}, "geometry": {"type": "Point", "coordinates": [-94.580628, 39.103652]}}, {"type": "Feature", "properties": {"stop_id": "5852", "stop_name": "ON GRAND AT 5TH NB", "route_count": 3, "routes": ["201", "238", "85"]}, "geometry": {"type": "Point", "coordinates": [-94.580445, 39.108936]}}, {"type": "Feature", "properties": {"stop_id": "1421510", "stop_name": "ON 3RD AT GRAND/OAK EASTBOUND", "route_count": 3, "routes": ["201", "238", "85"]}, "geometry": {"type": "Point", "coordinates": [-94.579324, 39.110616]}}, {"type": "Feature", "properties": {"stop_id": "4", "stop_name": "ON 3RD AT GRAND WESTBOUND", "route_count": 3, "routes": ["201", "238", "85"]}, "geometry": {"type": "Point", "coordinates": [-94.580129, 39.110563]}}, {"type": "Feature", "properties": {"stop_id": "5802", "stop_name": "ON GRAND AT 5TH SB", "route_count": 4, "routes": ["201", "210", "238", "85"]}, "geometry": {"type": "Point", "coordinates": [-94.580559, 39.108851]}}, {"type": "Feature", "properties": {"stop_id": "3000054", "stop_name": "ON GRAND AT 9TH SOUTHBOUND FARSIDE", "route_count": 5, "routes": ["201", "210", "238", "550", "85"]}, "geometry": {"type": "Point", "coordinates": [-94.580777, 39.103353]}}, {"type": "Feature", "properties": {"stop_id": "290053", "stop_name": "ON GRAND AT 11TH SOUTHBOUND NEARSIDE", "route_count": 5, "routes": ["201", "210", "238", "550", "85"]}, "geometry": {"type": "Point", "coordinates": [-94.580901, 39.101158]}}, {"type": "Feature", "properties": {"stop_id": "2800191", "stop_name": "ON GRAND AT 16TH SOUTHBOUND FARSIDE", "route_count": 3, "routes": ["201", "550", "85"]}, "geometry": {"type": "Point", "coordinates": [-94.581265, 39.094203]}}, {"type": "Feature", "properties": {"stop_id": "2800195", "stop_name": "ON GRAND AT 19TH SOUTHBOUND FARSIDE", "route_count": 3, "routes": ["201", "550", "85"]}, "geometry": {"type": "Point", "coordinates": [-94.581469, 39.090168]}}, {"type": "Feature", "properties": {"stop_id": "7100092", "stop_name": "ON GRAND AT 11TH NORTHBOUND", "route_count": 3, "routes": ["24", "550", "85"]}, "geometry": {"type": "Point", "coordinates": [-94.580755, 39.101281]}}, {"type": "Feature", "properties": {"stop_id": "5100068", "stop_name": "ON PERSHING AT BROADWAY EASTBOUND", "route_count": 3, "routes": ["27", "50", "550"]}, "geometry": {"type": "Point", "coordinates": [-94.589114, 39.083307]}}, {"type": "Feature", "properties": {"stop_id": "2800116", "stop_name": "ON 40 HWY AT 36TH TERR WB", "route_count": 3, "routes": ["28", "31", "47"]}, "geometry": {"type": "Point", "coordinates": [-94.462665, 39.056064]}}, {"type": "Feature", "properties": {"stop_id": "2800117", "stop_name": "ON 40 HWY AT 35TH TERRACE WESTBOUND", "route_count": 3, "routes": ["28", "31", "47"]}, "geometry": {"type": "Point", "coordinates": [-94.466073, 39.05744]}}, {"type": "Feature", "properties": {"stop_id": "2800118", "stop_name": "ON 40 HWY AT DENTON WESTBOUND", "route_count": 3, "routes": ["28", "31", "47"]}, "geometry": {"type": "Point", "coordinates": [-94.467999, 39.058218]}}, {"type": "Feature", "properties": {"stop_id": "2800245", "stop_name": "ON 40 HWY AT PEEK EASTBOUND", "route_count": 3, "routes": ["28", "31", "47"]}, "geometry": {"type": "Point", "coordinates": [-94.470872, 39.059179]}}, {"type": "Feature", "properties": {"stop_id": "2800246", "stop_name": "ON 40 HWY AT DENTON EASTBOUND", "route_count": 3, "routes": ["28", "31", "47"]}, "geometry": {"type": "Point", "coordinates": [-94.468355, 39.058224]}}, {"type": "Feature", "properties": {"stop_id": "2800247", "stop_name": "ON 40 HWY AT 35TH TERRACE  EASTBOUND", "route_count": 3, "routes": ["28", "31", "47"]}, "geometry": {"type": "Point", "coordinates": [-94.465942, 39.057268]}}, {"type": "Feature", "properties": {"stop_id": "2800248", "stop_name": "ON 40 HWY AT 9807 E 40 HWY EASTBOUND", "route_count": 3, "routes": ["28", "31", "47"]}, "geometry": {"type": "Point", "coordinates": [-94.463964, 39.056456]}}]}