{
  "type": "FeatureCollection",
  "features": [
    {
      "type": "Feature",
      "properties": {
        "id": "east_west",
        "name": "East-West Transit Study",
        "status": "Early study (alignment + mode screening) \u2014 no route or mode chosen yet",
        "mode": "Mode not yet determined (KCATA + KC Streetcar Authority are evaluating streetcar, BRT, and other options)",
        "geometry_type": "study_area",
        "population_estimate": 20677,
        "block_group_count": 26,
        "source": "ridekc.org/planning/eastwesttransit \u2014 study area bounded by Rainbow Blvd (west), Van Brunt Blvd (east), 31st St (north), 43rd St (south); Nov 2023 materials show the corridor alignment along 39th Street and Linwood Boulevard. This dashboard's illustrative line follows 39th St east to Main St, then north on Main to Linwood before continuing east \u2014 not a straight run along 39th the whole way, since Main St is where the corridor actually meets the existing streetcar line.",
        "illustrative_length_miles": 6.02,
        "cost_estimate_low_millions": 524,
        "cost_estimate_high_millions": 602
      },
      "geometry": {
        "type": "Polygon",
        "coordinates": [
          [
            [
              -94.613085,
              39.071105
            ],
            [
              -94.521692,
              39.068238
            ],
            [
              -94.5238867,
              39.0653396
            ],
            [
              -94.611952,
              39.050165
            ],
            [
              -94.613085,
              39.071105
            ]
          ]
        ]
      }
    },
    {
      "type": "Feature",
      "properties": {
        "id": "east_west_route",
        "name": "East-West Transit Study \u2014 illustrative alignment",
        "geometry_type": "illustrative_route",
        "parent_id": "east_west",
        "illustrative_length_miles": 6.02,
        "cost_estimate_low_millions": 524,
        "cost_estimate_high_millions": 602
      },
      "geometry": {
        "type": "LineString",
        "coordinates": [
          [
            -94.611869,
            39.057259
          ],
          [
            -94.611869,
            39.057214
          ],
          [
            -94.61187,
            39.056856
          ],
          [
            -94.611828,
            39.056736
          ],
          [
            -94.61184,
            39.056295
          ],
          [
            -94.61184,
            39.056191
          ],
          [
            -94.611983,
            39.056221
          ],
          [
            -94.612286,
            39.056217
          ],
          [
            -94.612379,
            39.056199
          ],
          [
            -94.612382,
            39.056254
          ],
          [
            -94.612386,
            39.057031
          ],
          [
            -94.612387,
            39.057262
          ],
          [
            -94.612394,
            39.057342
          ],
          [
            -94.612203,
            39.057345
          ],
          [
            -94.611983,
            39.057347
          ],
          [
            -94.611869,
            39.057348
          ],
          [
            -94.611746,
            39.057292
          ],
          [
            -94.611656,
            39.057274
          ],
          [
            -94.611011,
            39.057277
          ],
          [
            -94.610904,
            39.057277
          ],
          [
            -94.610219,
            39.05727
          ],
          [
            -94.609672,
            39.057267
          ],
          [
            -94.609364,
            39.057265
          ],
          [
            -94.609119,
            39.057267
          ],
          [
            -94.608996,
            39.057269
          ],
          [
            -94.608535,
            39.057276
          ],
          [
            -94.608509,
            39.057277
          ],
          [
            -94.608352,
            39.057279
          ],
          [
            -94.608213,
            39.057279
          ],
          [
            -94.608141,
            39.057278
          ],
          [
            -94.607452,
            39.057279
          ],
          [
            -94.607416,
            39.057279
          ],
          [
            -94.607289,
            39.057332
          ],
          [
            -94.607186,
            39.057327
          ],
          [
            -94.606271,
            39.057303
          ],
          [
            -94.606206,
            39.057302
          ],
          [
            -94.606109,
            39.057299
          ],
          [
            -94.605674,
            39.057285
          ],
          [
            -94.605599,
            39.057281
          ],
          [
            -94.605354,
            39.057272
          ],
          [
            -94.605046,
            39.057261
          ],
          [
            -94.604952,
            39.057258
          ],
          [
            -94.604225,
            39.057229
          ],
          [
            -94.603826,
            39.057213
          ],
          [
            -94.603747,
            39.057211
          ],
          [
            -94.603679,
            39.05721
          ],
          [
            -94.603537,
            39.057205
          ],
          [
            -94.602737,
            39.057176
          ],
          [
            -94.602637,
            39.057173
          ],
          [
            -94.602283,
            39.057161
          ],
          [
            -94.601876,
            39.057147
          ],
          [
            -94.601728,
            39.057142
          ],
          [
            -94.601694,
            39.05714
          ],
          [
            -94.601533,
            39.057135
          ],
          [
            -94.601442,
            39.057131
          ],
          [
            -94.601168,
            39.057122
          ],
          [
            -94.60039,
            39.057095
          ],
          [
            -94.600278,
            39.057091
          ],
          [
            -94.600188,
            39.057088
          ],
          [
            -94.599798,
            39.057074
          ],
          [
            -94.599751,
            39.057073
          ],
          [
            -94.599636,
            39.057069
          ],
          [
            -94.59951,
            39.057065
          ],
          [
            -94.599177,
            39.057054
          ],
          [
            -94.599032,
            39.057048
          ],
          [
            -94.598856,
            39.057042
          ],
          [
            -94.598545,
            39.057032
          ],
          [
            -94.598328,
            39.057024
          ],
          [
            -94.597945,
            39.057011
          ],
          [
            -94.597691,
            39.057002
          ],
          [
            -94.597155,
            39.056983
          ],
          [
            -94.596473,
            39.05696
          ],
          [
            -94.596394,
            39.056957
          ],
          [
            -94.596141,
            39.056944
          ],
          [
            -94.595823,
            39.056928
          ],
          [
            -94.595748,
            39.056924
          ],
          [
            -94.595586,
            39.056914
          ],
          [
            -94.595501,
            39.056909
          ],
          [
            -94.595387,
            39.056903
          ],
          [
            -94.595324,
            39.056901
          ],
          [
            -94.594983,
            39.056887
          ],
          [
            -94.594851,
            39.056882
          ],
          [
            -94.594478,
            39.056869
          ],
          [
            -94.59431,
            39.056863
          ],
          [
            -94.59418,
            39.056858
          ],
          [
            -94.593885,
            39.056848
          ],
          [
            -94.593783,
            39.056845
          ],
          [
            -94.593201,
            39.056826
          ],
          [
            -94.593138,
            39.056825
          ],
          [
            -94.593069,
            39.056825
          ],
          [
            -94.593023,
            39.056825
          ],
          [
            -94.592937,
            39.056826
          ],
          [
            -94.5923,
            39.056805
          ],
          [
            -94.591573,
            39.056778
          ],
          [
            -94.5915,
            39.056777
          ],
          [
            -94.59134,
            39.056772
          ],
          [
            -94.591259,
            39.056767
          ],
          [
            -94.590955,
            39.056748
          ],
          [
            -94.590928,
            39.056747
          ],
          [
            -94.590763,
            39.056742
          ],
          [
            -94.590708,
            39.05674
          ],
          [
            -94.590617,
            39.056736
          ],
          [
            -94.59024,
            39.056723
          ],
          [
            -94.590128,
            39.056719
          ],
          [
            -94.589787,
            39.056707
          ],
          [
            -94.589719,
            39.056705
          ],
          [
            -94.589534,
            39.056698
          ],
          [
            -94.589465,
            39.056696
          ],
          [
            -94.588659,
            39.056667
          ],
          [
            -94.588589,
            39.056665
          ],
          [
            -94.588523,
            39.056662
          ],
          [
            -94.588443,
            39.05666
          ],
          [
            -94.588336,
            39.056656
          ],
          [
            -94.587809,
            39.056637
          ],
          [
            -94.58731,
            39.05662
          ],
          [
            -94.586796,
            39.056601
          ],
          [
            -94.586698,
            39.056597
          ],
          [
            -94.586691,
            39.05653
          ],
          [
            -94.586682,
            39.056433
          ],
          [
            -94.586687,
            39.056292
          ],
          [
            -94.586379,
            39.056283
          ],
          [
            -94.586262,
            39.05628
          ],
          [
            -94.58617,
            39.056277
          ],
          [
            -94.586123,
            39.056276
          ],
          [
            -94.586117,
            39.056371
          ],
          [
            -94.586109,
            39.056502
          ],
          [
            -94.586105,
            39.056576
          ],
          [
            -94.586101,
            39.056654
          ],
          [
            -94.586092,
            39.056807
          ],
          [
            -94.586092,
            39.056807
          ],
          [
            -94.58608,
            39.057013
          ],
          [
            -94.586049,
            39.057533
          ],
          [
            -94.58604,
            39.057693
          ],
          [
            -94.585999,
            39.058382
          ],
          [
            -94.585988,
            39.058573
          ],
          [
            -94.585981,
            39.058687
          ],
          [
            -94.585953,
            39.059165
          ],
          [
            -94.585943,
            39.059337
          ],
          [
            -94.585931,
            39.059531
          ],
          [
            -94.58592,
            39.059719
          ],
          [
            -94.585916,
            39.059784
          ],
          [
            -94.585908,
            39.059922
          ],
          [
            -94.585897,
            39.060112
          ],
          [
            -94.585896,
            39.060134
          ],
          [
            -94.585893,
            39.06018
          ],
          [
            -94.58589,
            39.060237
          ],
          [
            -94.585887,
            39.060279
          ],
          [
            -94.585877,
            39.06045
          ],
          [
            -94.585872,
            39.060532
          ],
          [
            -94.585853,
            39.060841
          ],
          [
            -94.585849,
            39.060903
          ],
          [
            -94.585835,
            39.061134
          ],
          [
            -94.585825,
            39.061307
          ],
          [
            -94.585818,
            39.061422
          ],
          [
            -94.585802,
            39.061682
          ],
          [
            -94.585788,
            39.06192
          ],
          [
            -94.585784,
            39.061983
          ],
          [
            -94.58578,
            39.062052
          ],
          [
            -94.585769,
            39.062248
          ],
          [
            -94.585763,
            39.062351
          ],
          [
            -94.585756,
            39.06247
          ],
          [
            -94.585746,
            39.062654
          ],
          [
            -94.58573,
            39.062939
          ],
          [
            -94.585722,
            39.063084
          ],
          [
            -94.585719,
            39.063124
          ],
          [
            -94.585718,
            39.06314
          ],
          [
            -94.58571,
            39.063287
          ],
          [
            -94.58569,
            39.063329
          ],
          [
            -94.585675,
            39.063373
          ],
          [
            -94.585658,
            39.063689
          ],
          [
            -94.585668,
            39.06374
          ],
          [
            -94.585681,
            39.063787
          ],
          [
            -94.585676,
            39.063897
          ],
          [
            -94.585667,
            39.064065
          ],
          [
            -94.585657,
            39.064272
          ],
          [
            -94.585651,
            39.06439
          ],
          [
            -94.585646,
            39.064493
          ],
          [
            -94.585639,
            39.06463
          ],
          [
            -94.58563,
            39.064802
          ],
          [
            -94.585625,
            39.064904
          ],
          [
            -94.585591,
            39.065536
          ],
          [
            -94.585583,
            39.065689
          ],
          [
            -94.58558,
            39.065754
          ],
          [
            -94.585566,
            39.066055
          ],
          [
            -94.585557,
            39.066243
          ],
          [
            -94.585551,
            39.066354
          ],
          [
            -94.585547,
            39.066407
          ],
          [
            -94.585542,
            39.066471
          ],
          [
            -94.585526,
            39.066691
          ],
          [
            -94.585494,
            39.067221
          ],
          [
            -94.585473,
            39.067705
          ],
          [
            -94.585469,
            39.067815
          ],
          [
            -94.585464,
            39.06792
          ],
          [
            -94.585459,
            39.068037
          ],
          [
            -94.585453,
            39.068176
          ],
          [
            -94.585452,
            39.068216
          ],
          [
            -94.585447,
            39.068327
          ],
          [
            -94.585447,
            39.068327
          ],
          [
            -94.585343,
            39.06835
          ],
          [
            -94.585279,
            39.068364
          ],
          [
            -94.585049,
            39.068415
          ],
          [
            -94.584803,
            39.068438
          ],
          [
            -94.584762,
            39.068437
          ],
          [
            -94.584529,
            39.068428
          ],
          [
            -94.584045,
            39.06841
          ],
          [
            -94.583798,
            39.0684
          ],
          [
            -94.583522,
            39.06839
          ],
          [
            -94.583433,
            39.068386
          ],
          [
            -94.583214,
            39.068378
          ],
          [
            -94.58304,
            39.068372
          ],
          [
            -94.582919,
            39.068367
          ],
          [
            -94.582583,
            39.068354
          ],
          [
            -94.582544,
            39.068353
          ],
          [
            -94.582421,
            39.068348
          ],
          [
            -94.581788,
            39.068326
          ],
          [
            -94.581352,
            39.06831
          ],
          [
            -94.580768,
            39.068295
          ],
          [
            -94.580698,
            39.068294
          ],
          [
            -94.580407,
            39.06828
          ],
          [
            -94.580189,
            39.068273
          ],
          [
            -94.580029,
            39.068259
          ],
          [
            -94.579917,
            39.068281
          ],
          [
            -94.579692,
            39.068343
          ],
          [
            -94.579514,
            39.068391
          ],
          [
            -94.579453,
            39.068463
          ],
          [
            -94.579161,
            39.068545
          ],
          [
            -94.579027,
            39.068583
          ],
          [
            -94.57894,
            39.068608
          ],
          [
            -94.578436,
            39.068753
          ],
          [
            -94.578418,
            39.068758
          ],
          [
            -94.578239,
            39.068809
          ],
          [
            -94.578006,
            39.068876
          ],
          [
            -94.577951,
            39.068885
          ],
          [
            -94.577799,
            39.068911
          ],
          [
            -94.577695,
            39.068908
          ],
          [
            -94.577266,
            39.068893
          ],
          [
            -94.577078,
            39.068887
          ],
          [
            -94.576908,
            39.068882
          ],
          [
            -94.576645,
            39.068873
          ],
          [
            -94.57644,
            39.068865
          ],
          [
            -94.57629,
            39.068859
          ],
          [
            -94.576139,
            39.068853
          ],
          [
            -94.575498,
            39.068828
          ],
          [
            -94.575214,
            39.068817
          ],
          [
            -94.575082,
            39.068812
          ],
          [
            -94.575049,
            39.068811
          ],
          [
            -94.574339,
            39.068783
          ],
          [
            -94.574031,
            39.068771
          ],
          [
            -94.573358,
            39.068744
          ],
          [
            -94.573303,
            39.068742
          ],
          [
            -94.573182,
            39.068737
          ],
          [
            -94.572672,
            39.068717
          ],
          [
            -94.572083,
            39.068695
          ],
          [
            -94.57156,
            39.068675
          ],
          [
            -94.57142,
            39.06867
          ],
          [
            -94.571307,
            39.068667
          ],
          [
            -94.570791,
            39.068651
          ],
          [
            -94.570179,
            39.068632
          ],
          [
            -94.570117,
            39.068631
          ],
          [
            -94.569379,
            39.068608
          ],
          [
            -94.569221,
            39.068603
          ],
          [
            -94.569126,
            39.0686
          ],
          [
            -94.568774,
            39.06859
          ],
          [
            -94.567052,
            39.068536
          ],
          [
            -94.567017,
            39.068535
          ],
          [
            -94.566805,
            39.068528
          ],
          [
            -94.566639,
            39.068523
          ],
          [
            -94.56659,
            39.068521
          ],
          [
            -94.566307,
            39.068513
          ],
          [
            -94.566278,
            39.068512
          ],
          [
            -94.566209,
            39.06851
          ],
          [
            -94.565744,
            39.068495
          ],
          [
            -94.565646,
            39.068492
          ],
          [
            -94.56558,
            39.068489
          ],
          [
            -94.565517,
            39.068487
          ],
          [
            -94.56449,
            39.068455
          ],
          [
            -94.564427,
            39.068453
          ],
          [
            -94.563393,
            39.068418
          ],
          [
            -94.563302,
            39.068417
          ],
          [
            -94.562277,
            39.068376
          ],
          [
            -94.562188,
            39.068373
          ],
          [
            -94.562104,
            39.068372
          ],
          [
            -94.561805,
            39.068368
          ],
          [
            -94.561585,
            39.068362
          ],
          [
            -94.561459,
            39.068308
          ],
          [
            -94.560991,
            39.068292
          ],
          [
            -94.56076,
            39.068285
          ],
          [
            -94.559955,
            39.068258
          ],
          [
            -94.559695,
            39.06825
          ],
          [
            -94.55918,
            39.068231
          ],
          [
            -94.558964,
            39.068223
          ],
          [
            -94.558706,
            39.068246
          ],
          [
            -94.558231,
            39.068231
          ],
          [
            -94.558027,
            39.068225
          ],
          [
            -94.55755,
            39.06821
          ],
          [
            -94.556399,
            39.068174
          ],
          [
            -94.556338,
            39.068172
          ],
          [
            -94.555234,
            39.068135
          ],
          [
            -94.554516,
            39.068109
          ],
          [
            -94.554088,
            39.068094
          ],
          [
            -94.553913,
            39.068088
          ],
          [
            -94.553854,
            39.068086
          ],
          [
            -94.553728,
            39.068082
          ],
          [
            -94.553082,
            39.068059
          ],
          [
            -94.552932,
            39.068053
          ],
          [
            -94.552797,
            39.068048
          ],
          [
            -94.552497,
            39.068038
          ],
          [
            -94.552307,
            39.068031
          ],
          [
            -94.551758,
            39.068012
          ],
          [
            -94.550625,
            39.067984
          ],
          [
            -94.550052,
            39.067969
          ],
          [
            -94.549644,
            39.067958
          ],
          [
            -94.549468,
            39.067954
          ],
          [
            -94.549321,
            39.067949
          ],
          [
            -94.548416,
            39.067918
          ],
          [
            -94.548338,
            39.067916
          ],
          [
            -94.547264,
            39.06788
          ],
          [
            -94.547079,
            39.067873
          ],
          [
            -94.546218,
            39.067843
          ],
          [
            -94.546079,
            39.067838
          ],
          [
            -94.545927,
            39.067833
          ],
          [
            -94.544887,
            39.067797
          ],
          [
            -94.544229,
            39.067774
          ],
          [
            -94.543944,
            39.067768
          ],
          [
            -94.543832,
            39.067766
          ],
          [
            -94.543736,
            39.067764
          ],
          [
            -94.543641,
            39.067762
          ],
          [
            -94.542614,
            39.067735
          ],
          [
            -94.541466,
            39.0677
          ],
          [
            -94.540545,
            39.067669
          ],
          [
            -94.540319,
            39.067661
          ],
          [
            -94.539822,
            39.067647
          ],
          [
            -94.539582,
            39.06764
          ],
          [
            -94.539242,
            39.067633
          ],
          [
            -94.539142,
            39.067631
          ],
          [
            -94.539057,
            39.067627
          ],
          [
            -94.538128,
            39.067586
          ],
          [
            -94.538056,
            39.067583
          ],
          [
            -94.536973,
            39.067549
          ],
          [
            -94.535701,
            39.067514
          ],
          [
            -94.534556,
            39.067474
          ],
          [
            -94.53447,
            39.067472
          ],
          [
            -94.5334,
            39.067445
          ],
          [
            -94.532246,
            39.067409
          ],
          [
            -94.531081,
            39.067373
          ],
          [
            -94.529933,
            39.067337
          ],
          [
            -94.528885,
            39.067303
          ],
          [
            -94.528255,
            39.067282
          ],
          [
            -94.527867,
            39.067274
          ],
          [
            -94.527528,
            39.067286
          ],
          [
            -94.527102,
            39.067351
          ],
          [
            -94.526895,
            39.067399
          ],
          [
            -94.526748,
            39.067447
          ],
          [
            -94.526328,
            39.067623
          ],
          [
            -94.524624,
            39.068888
          ],
          [
            -94.524523,
            39.068963
          ],
          [
            -94.524289,
            39.068956
          ],
          [
            -94.523983,
            39.068947
          ],
          [
            -94.523672,
            39.068936
          ],
          [
            -94.522575,
            39.068915
          ],
          [
            -94.522517,
            39.068913
          ],
          [
            -94.521754,
            39.068892
          ],
          [
            -94.521319,
            39.068875
          ],
          [
            -94.52116,
            39.068868
          ],
          [
            -94.521044,
            39.068863
          ],
          [
            -94.521123,
            39.068755
          ],
          [
            -94.521264,
            39.068563
          ],
          [
            -94.521304,
            39.068518
          ],
          [
            -94.52155,
            39.068309
          ],
          [
            -94.521671,
            39.068243
          ],
          [
            -94.521692,
            39.068239
          ]
        ]
      }
    },
    {
      "type": "Feature",
      "properties": {
        "id": "north_kc",
        "name": "North Kansas City Extension",
        "status": "Early study \u2014 comparing track configurations, station locations, and turnback points",
        "mode": "KC Streetcar (extension of existing line)",
        "geometry_type": "study_area",
        "population_estimate": 2058,
        "block_group_count": 2,
        "source": "kcstreetcar.org \u2014 study area from River Market across the Missouri River to ~32nd Ave in North Kansas City, bounded west by the ASB Railroad Bridge/BNSF right-of-way, east by Charlotte and Swift Streets.",
        "illustrative_length_miles": 4.99,
        "cost_estimate_low_millions": 434,
        "cost_estimate_high_millions": 499
      },
      "geometry": {
        "type": "Polygon",
        "coordinates": [
          [
            [
              -94.5795527,
              39.1158353
            ],
            [
              -94.5803823,
              39.1490292
            ],
            [
              -94.5774901,
              39.1522436
            ],
            [
              -94.5773828,
              39.1439253
            ],
            [
              -94.5721205,
              39.1176612
            ],
            [
              -94.5748622,
              39.1107443
            ],
            [
              -94.5795527,
              39.1158353
            ]
          ]
        ]
      }
    },
    {
      "type": "Feature",
      "properties": {
        "id": "north_kc_route",
        "name": "North Kansas City Extension \u2014 illustrative alignment",
        "geometry_type": "illustrative_route",
        "parent_id": "north_kc",
        "illustrative_length_miles": 4.99,
        "cost_estimate_low_millions": 434,
        "cost_estimate_high_millions": 499
      },
      "geometry": {
        "type": "LineString",
        "coordinates": [
          [
            -94.57174,
            39.117133
          ],
          [
            -94.571771,
            39.11712
          ],
          [
            -94.571814,
            39.117101
          ],
          [
            -94.571938,
            39.117045
          ],
          [
            -94.57207,
            39.11699
          ],
          [
            -94.572226,
            39.116924
          ],
          [
            -94.572902,
            39.116645
          ],
          [
            -94.573017,
            39.116604
          ],
          [
            -94.573277,
            39.116518
          ],
          [
            -94.573808,
            39.116349
          ],
          [
            -94.573894,
            39.116314
          ],
          [
            -94.573998,
            39.116266
          ],
          [
            -94.574107,
            39.116208
          ],
          [
            -94.574166,
            39.116173
          ],
          [
            -94.574194,
            39.116136
          ],
          [
            -94.574529,
            39.115603
          ],
          [
            -94.574731,
            39.115657
          ],
          [
            -94.574811,
            39.115679
          ],
          [
            -94.574832,
            39.115685
          ],
          [
            -94.574899,
            39.115703
          ],
          [
            -94.575077,
            39.115747
          ],
          [
            -94.575164,
            39.115765
          ],
          [
            -94.575318,
            39.115791
          ],
          [
            -94.575503,
            39.115807
          ],
          [
            -94.575647,
            39.115814
          ],
          [
            -94.575864,
            39.11582
          ],
          [
            -94.576085,
            39.115814
          ],
          [
            -94.57631,
            39.115795
          ],
          [
            -94.576488,
            39.115765
          ],
          [
            -94.576601,
            39.115744
          ],
          [
            -94.57675,
            39.115712
          ],
          [
            -94.576905,
            39.115676
          ],
          [
            -94.577123,
            39.115618
          ],
          [
            -94.577333,
            39.115555
          ],
          [
            -94.577572,
            39.115474
          ],
          [
            -94.577809,
            39.115383
          ],
          [
            -94.578067,
            39.115272
          ],
          [
            -94.578377,
            39.115114
          ],
          [
            -94.578564,
            39.115005
          ],
          [
            -94.578785,
            39.114868
          ],
          [
            -94.579065,
            39.114675
          ],
          [
            -94.579225,
            39.114555
          ],
          [
            -94.57955,
            39.114269
          ],
          [
            -94.579773,
            39.114043
          ],
          [
            -94.579991,
            39.113788
          ],
          [
            -94.580164,
            39.113565
          ],
          [
            -94.580306,
            39.113331
          ],
          [
            -94.580521,
            39.112949
          ],
          [
            -94.580661,
            39.112636
          ],
          [
            -94.580738,
            39.112376
          ],
          [
            -94.58079,
            39.112191
          ],
          [
            -94.580915,
            39.111748
          ],
          [
            -94.580956,
            39.111603
          ],
          [
            -94.581028,
            39.111369
          ],
          [
            -94.581053,
            39.111282
          ],
          [
            -94.581063,
            39.111249
          ],
          [
            -94.581069,
            39.111222
          ],
          [
            -94.581136,
            39.110989
          ],
          [
            -94.581151,
            39.110932
          ],
          [
            -94.581154,
            39.110889
          ],
          [
            -94.581148,
            39.110807
          ],
          [
            -94.58112,
            39.110699
          ],
          [
            -94.581049,
            39.110483
          ],
          [
            -94.581038,
            39.110448
          ],
          [
            -94.581025,
            39.110408
          ],
          [
            -94.581006,
            39.11035
          ],
          [
            -94.580963,
            39.110356
          ],
          [
            -94.580931,
            39.110362
          ],
          [
            -94.580899,
            39.110369
          ],
          [
            -94.580858,
            39.110377
          ],
          [
            -94.580391,
            39.110474
          ],
          [
            -94.580291,
            39.110495
          ],
          [
            -94.580033,
            39.110549
          ],
          [
            -94.579776,
            39.110603
          ],
          [
            -94.579605,
            39.110636
          ],
          [
            -94.579252,
            39.110705
          ],
          [
            -94.579183,
            39.110718
          ],
          [
            -94.578571,
            39.110837
          ],
          [
            -94.577909,
            39.110963
          ],
          [
            -94.577341,
            39.11108
          ],
          [
            -94.57739,
            39.111316
          ],
          [
            -94.577528,
            39.111722
          ],
          [
            -94.577884,
            39.112984
          ],
          [
            -94.578099,
            39.113577
          ],
          [
            -94.578543,
            39.115707
          ],
          [
            -94.579419,
            39.119915
          ],
          [
            -94.579747,
            39.121513
          ],
          [
            -94.57999,
            39.122664
          ],
          [
            -94.580215,
            39.123798
          ],
          [
            -94.580305,
            39.124328
          ],
          [
            -94.580381,
            39.124952
          ],
          [
            -94.580503,
            39.12577
          ],
          [
            -94.580534,
            39.126103
          ],
          [
            -94.580539,
            39.12668
          ],
          [
            -94.58054,
            39.126779
          ],
          [
            -94.580541,
            39.126826
          ],
          [
            -94.580542,
            39.126931
          ],
          [
            -94.580541,
            39.127045
          ],
          [
            -94.580539,
            39.12719
          ],
          [
            -94.580532,
            39.127636
          ],
          [
            -94.580528,
            39.12798
          ],
          [
            -94.580523,
            39.128324
          ],
          [
            -94.580517,
            39.128811
          ],
          [
            -94.58051,
            39.129298
          ],
          [
            -94.580507,
            39.129509
          ],
          [
            -94.580502,
            39.129872
          ],
          [
            -94.5805,
            39.130068
          ],
          [
            -94.580495,
            39.130419
          ],
          [
            -94.580493,
            39.130549
          ],
          [
            -94.580492,
            39.130633
          ],
          [
            -94.580473,
            39.131701
          ],
          [
            -94.580467,
            39.132014
          ],
          [
            -94.580461,
            39.13237
          ],
          [
            -94.580432,
            39.134074
          ],
          [
            -94.58043,
            39.134197
          ],
          [
            -94.580428,
            39.134312
          ],
          [
            -94.580423,
            39.134659
          ],
          [
            -94.580422,
            39.134737
          ],
          [
            -94.580415,
            39.135239
          ],
          [
            -94.580403,
            39.136036
          ],
          [
            -94.580382,
            39.137586
          ],
          [
            -94.58038,
            39.137713
          ],
          [
            -94.580378,
            39.137842
          ],
          [
            -94.580377,
            39.137947
          ],
          [
            -94.580362,
            39.139081
          ],
          [
            -94.580358,
            39.139382
          ],
          [
            -94.580347,
            39.140264
          ],
          [
            -94.580346,
            39.141116
          ],
          [
            -94.580169,
            39.141352
          ],
          [
            -94.580153,
            39.141361
          ],
          [
            -94.580059,
            39.141416
          ],
          [
            -94.579911,
            39.141483
          ],
          [
            -94.579686,
            39.141526
          ],
          [
            -94.579487,
            39.141564
          ],
          [
            -94.579369,
            39.141621
          ],
          [
            -94.579099,
            39.141672
          ],
          [
            -94.578611,
            39.14176
          ],
          [
            -94.578523,
            39.141776
          ],
          [
            -94.578425,
            39.141793
          ],
          [
            -94.578263,
            39.141781
          ],
          [
            -94.578049,
            39.141816
          ],
          [
            -94.577967,
            39.141836
          ],
          [
            -94.577459,
            39.141938
          ],
          [
            -94.57742,
            39.141968
          ],
          [
            -94.577295,
            39.14199
          ],
          [
            -94.577292,
            39.142093
          ],
          [
            -94.577281,
            39.142479
          ],
          [
            -94.577278,
            39.142573
          ],
          [
            -94.577276,
            39.142641
          ],
          [
            -94.577274,
            39.142734
          ],
          [
            -94.577269,
            39.143085
          ],
          [
            -94.577257,
            39.143799
          ],
          [
            -94.577257,
            39.143851
          ],
          [
            -94.577386,
            39.143855
          ],
          [
            -94.577401,
            39.143855
          ],
          [
            -94.577906,
            39.143862
          ],
          [
            -94.578414,
            39.143865
          ],
          [
            -94.578489,
            39.143866
          ],
          [
            -94.578573,
            39.143865
          ],
          [
            -94.57907,
            39.14386
          ],
          [
            -94.57957,
            39.143865
          ],
          [
            -94.579637,
            39.143866
          ],
          [
            -94.579736,
            39.143867
          ],
          [
            -94.580185,
            39.143872
          ],
          [
            -94.580276,
            39.143873
          ],
          [
            -94.580269,
            39.144451
          ],
          [
            -94.580262,
            39.145017
          ],
          [
            -94.580261,
            39.145139
          ],
          [
            -94.580261,
            39.145169
          ],
          [
            -94.58026,
            39.145234
          ],
          [
            -94.580248,
            39.14591
          ],
          [
            -94.580245,
            39.146082
          ],
          [
            -94.58023,
            39.14694
          ],
          [
            -94.58022,
            39.147542
          ],
          [
            -94.58022,
            39.147579
          ],
          [
            -94.580218,
            39.147664
          ],
          [
            -94.580205,
            39.148533
          ],
          [
            -94.580203,
            39.148862
          ],
          [
            -94.580201,
            39.149049
          ],
          [
            -94.580129,
            39.149487
          ],
          [
            -94.580136,
            39.149779
          ],
          [
            -94.580117,
            39.150284
          ],
          [
            -94.580053,
            39.150546
          ],
          [
            -94.579893,
            39.150935
          ],
          [
            -94.579699,
            39.151253
          ],
          [
            -94.579243,
            39.151765
          ],
          [
            -94.578691,
            39.15219
          ],
          [
            -94.57861,
            39.152252
          ],
          [
            -94.578514,
            39.152326
          ],
          [
            -94.578704,
            39.152326
          ],
          [
            -94.578782,
            39.15227
          ],
          [
            -94.579401,
            39.151786
          ],
          [
            -94.579866,
            39.151399
          ],
          [
            -94.580096,
            39.151145
          ],
          [
            -94.580182,
            39.151005
          ],
          [
            -94.580214,
            39.150942
          ],
          [
            -94.580266,
            39.150837
          ],
          [
            -94.580329,
            39.150618
          ],
          [
            -94.580367,
            39.150393
          ],
          [
            -94.580375,
            39.14966
          ],
          [
            -94.58038,
            39.149213
          ],
          [
            -94.580382,
            39.149029
          ],
          [
            -94.580388,
            39.148475
          ],
          [
            -94.580393,
            39.148015
          ],
          [
            -94.580647,
            39.148021
          ],
          [
            -94.580869,
            39.148019
          ],
          [
            -94.580875,
            39.147853
          ],
          [
            -94.580872,
            39.147667
          ],
          [
            -94.580708,
            39.147667
          ],
          [
            -94.580568,
            39.147666
          ],
          [
            -94.580547,
            39.147666
          ],
          [
            -94.580397,
            39.147665
          ],
          [
            -94.580218,
            39.147664
          ],
          [
            -94.580205,
            39.148533
          ],
          [
            -94.580203,
            39.148862
          ],
          [
            -94.580201,
            39.149049
          ],
          [
            -94.580129,
            39.149487
          ],
          [
            -94.580136,
            39.149779
          ],
          [
            -94.580117,
            39.150284
          ],
          [
            -94.580053,
            39.150546
          ],
          [
            -94.579893,
            39.150935
          ],
          [
            -94.579699,
            39.151253
          ],
          [
            -94.579243,
            39.151765
          ],
          [
            -94.578691,
            39.15219
          ],
          [
            -94.57861,
            39.152252
          ],
          [
            -94.578514,
            39.152326
          ],
          [
            -94.578351,
            39.152322
          ],
          [
            -94.578261,
            39.15232
          ],
          [
            -94.577896,
            39.152311
          ],
          [
            -94.577529,
            39.152305
          ],
          [
            -94.577488,
            39.152304
          ]
        ]
      }
    },
    {
      "type": "Feature",
      "properties": {
        "id": "vine",
        "name": "18th & Vine Jazz District Extension",
        "status": "Feasibility study \u2014 comparing route options (public open house held July 2026)",
        "mode": "KC Streetcar (extension of existing line)",
        "geometry_type": "illustrative_route_no_area",
        "population_estimate": 5422,
        "block_group_count": 5,
        "population_method": "No formal study-area boundary has been published for this one (unlike the other two) \u2014 population is estimated within a 0.5-mile buffer of the illustrative route instead.",
        "source": "kcstreetcar.org / KCTV5 coverage \u2014 proposed extension east from the existing line into the 18th & Vine corridor; specific streets not published beyond the terminus at The Paseo, route shown here follows 18th Street from the existing line east to The Paseo as the most direct plausible path.",
        "illustrative_length_miles": 1.5,
        "cost_estimate_low_millions": 130,
        "cost_estimate_high_millions": 150
      },
      "geometry": {
        "type": "LineString",
        "coordinates": [
          [
            -94.581684,
            39.091308
          ],
          [
            -94.581539,
            39.091304
          ],
          [
            -94.581511,
            39.091303
          ],
          [
            -94.581445,
            39.0913
          ],
          [
            -94.581352,
            39.091297
          ],
          [
            -94.58133,
            39.091644
          ],
          [
            -94.581324,
            39.091725
          ],
          [
            -94.58127,
            39.091723
          ],
          [
            -94.581261,
            39.091723
          ],
          [
            -94.581257,
            39.091722
          ],
          [
            -94.581194,
            39.09172
          ],
          [
            -94.581067,
            39.091715
          ],
          [
            -94.580924,
            39.091711
          ],
          [
            -94.580729,
            39.091703
          ],
          [
            -94.580283,
            39.091687
          ],
          [
            -94.580145,
            39.091683
          ],
          [
            -94.580037,
            39.091677
          ],
          [
            -94.579556,
            39.091651
          ],
          [
            -94.579097,
            39.091636
          ],
          [
            -94.578948,
            39.091631
          ],
          [
            -94.578879,
            39.091628
          ],
          [
            -94.578838,
            39.091628
          ],
          [
            -94.578389,
            39.091614
          ],
          [
            -94.578298,
            39.091611
          ],
          [
            -94.577882,
            39.091598
          ],
          [
            -94.577804,
            39.091596
          ],
          [
            -94.577725,
            39.091594
          ],
          [
            -94.57722,
            39.09158
          ],
          [
            -94.57672,
            39.091564
          ],
          [
            -94.576642,
            39.091561
          ],
          [
            -94.576547,
            39.091558
          ],
          [
            -94.57606,
            39.091544
          ],
          [
            -94.575563,
            39.09153
          ],
          [
            -94.575481,
            39.091527
          ],
          [
            -94.57539,
            39.091525
          ],
          [
            -94.574924,
            39.09151
          ],
          [
            -94.574615,
            39.091501
          ],
          [
            -94.574444,
            39.091495
          ],
          [
            -94.574396,
            39.091494
          ],
          [
            -94.574332,
            39.091492
          ],
          [
            -94.574251,
            39.09149
          ],
          [
            -94.573726,
            39.091473
          ],
          [
            -94.573654,
            39.091471
          ],
          [
            -94.573611,
            39.09147
          ],
          [
            -94.573035,
            39.091451
          ],
          [
            -94.572957,
            39.091449
          ],
          [
            -94.572872,
            39.091447
          ],
          [
            -94.570379,
            39.091379
          ],
          [
            -94.570274,
            39.091376
          ],
          [
            -94.570203,
            39.091374
          ],
          [
            -94.568952,
            39.091344
          ],
          [
            -94.56744,
            39.091306
          ],
          [
            -94.567403,
            39.091305
          ],
          [
            -94.566639,
            39.091286
          ],
          [
            -94.566368,
            39.091279
          ],
          [
            -94.565734,
            39.091253
          ],
          [
            -94.565599,
            39.091247
          ],
          [
            -94.565246,
            39.091236
          ],
          [
            -94.565015,
            39.091228
          ],
          [
            -94.56489,
            39.091223
          ],
          [
            -94.564646,
            39.091227
          ],
          [
            -94.564479,
            39.09123
          ],
          [
            -94.564328,
            39.091241
          ],
          [
            -94.5641,
            39.091237
          ],
          [
            -94.563506,
            39.091218
          ],
          [
            -94.56344,
            39.091215
          ],
          [
            -94.563354,
            39.091212
          ],
          [
            -94.56326,
            39.091209
          ],
          [
            -94.562296,
            39.091179
          ],
          [
            -94.562222,
            39.091177
          ],
          [
            -94.562147,
            39.091175
          ],
          [
            -94.562084,
            39.091172
          ],
          [
            -94.561117,
            39.091141
          ],
          [
            -94.561029,
            39.091138
          ],
          [
            -94.561033,
            39.091062
          ],
          [
            -94.561036,
            39.091014
          ],
          [
            -94.561054,
            39.090685
          ],
          [
            -94.561086,
            39.090102
          ],
          [
            -94.5611,
            39.08984
          ],
          [
            -94.561104,
            39.089771
          ],
          [
            -94.561182,
            39.089764
          ],
          [
            -94.561191,
            39.089763
          ],
          [
            -94.562181,
            39.089801
          ],
          [
            -94.562226,
            39.089802
          ],
          [
            -94.562296,
            39.089805
          ],
          [
            -94.562824,
            39.089822
          ],
          [
            -94.562876,
            39.089824
          ],
          [
            -94.563338,
            39.089841
          ],
          [
            -94.563423,
            39.089843
          ],
          [
            -94.56351,
            39.089845
          ],
          [
            -94.563944,
            39.089855
          ],
          [
            -94.564025,
            39.089858
          ],
          [
            -94.564436,
            39.089872
          ],
          [
            -94.564548,
            39.089876
          ],
          [
            -94.564545,
            39.089942
          ],
          [
            -94.56451,
            39.090579
          ],
          [
            -94.564502,
            39.090769
          ],
          [
            -94.564501,
            39.090794
          ],
          [
            -94.564486,
            39.091101
          ]
        ]
      }
    }
  ]
}